CCSDS_OMM_VERS = 2.0
CREATION_DATE  = 
ORIGINATOR     = 

OBJECT_NAME    = STARLINK-35474
OBJECT_ID      = 2025-259R
CENTER_NAME    = EARTH
REF_FRAME      = TEME
TIME_SYSTEM    = UTC
MEAN_ELEMENT_THEORY = SGP/SGP4

EPOCH          = 2025-11-26T04:00:03.000096
MEAN_MOTION    = 15.75368277
ECCENTRICITY   = .0002068
INCLINATION    = 42.9998
RA_OF_ASC_NODE = 144.8719
ARG_OF_PERICENTER = 274.9806
MEAN_ANOMALY   = 353.7806

EPHEMERIS_TYPE = 0
CLASSIFICATION_TYPE = U
NORAD_CAT_ID   = 66437
ELEMENT_SET_NO = 999
REV_AT_EPOCH   = 361
BSTAR          = -.62978E-2
MEAN_MOTION_DOT = -.885006E-2
MEAN_MOTION_DDOT = 0

CCSDS_OMM_VERS = 2.0
CREATION_DATE  = 
ORIGINATOR     = 

OBJECT_NAME    = STARLINK-34681
OBJECT_ID      = 2025-259S
CENTER_NAME    = EARTH
REF_FRAME      = TEME
TIME_SYSTEM    = UTC
MEAN_ELEMENT_THEORY = SGP/SGP4

EPOCH          = 2025-11-26T04:00:03.000096
MEAN_MOTION    = 15.75331462
ECCENTRICITY   = .0001901
INCLINATION    = 42.9997
RA_OF_ASC_NODE = 144.8671
ARG_OF_PERICENTER = 261.9402
MEAN_ANOMALY   = 8.7638

EPHEMERIS_TYPE = 0
CLASSIFICATION_TYPE = U
NORAD_CAT_ID   = 66438
ELEMENT_SET_NO = 999
REV_AT_EPOCH   = 350
BSTAR          = -.59798E-2
MEAN_MOTION_DOT = -.843163E-2
MEAN_MOTION_DDOT = 0

CCSDS_OMM_VERS = 2.0
CREATION_DATE  = 
ORIGINATOR     = 

OBJECT_NAME    = STARLINK-35327
OBJECT_ID      = 2025-259T
CENTER_NAME    = EARTH
REF_FRAME      = TEME
TIME_SYSTEM    = UTC
MEAN_ELEMENT_THEORY = SGP/SGP4

EPOCH          = 2025-11-26T04:00:03.000096
MEAN_MOTION    = 15.75347740
ECCENTRICITY   = .0002204
INCLINATION    = 42.9997
RA_OF_ASC_NODE = 144.8834
ARG_OF_PERICENTER = 255.4906
MEAN_ANOMALY   = 9.4408

EPHEMERIS_TYPE = 0
CLASSIFICATION_TYPE = U
NORAD_CAT_ID   = 66439
ELEMENT_SET_NO = 999
REV_AT_EPOCH   = 361
BSTAR          = -.61053E-2
MEAN_MOTION_DOT = -.859847E-2
MEAN_MOTION_DDOT = 0

CCSDS_OMM_VERS = 2.0
CREATION_DATE  = 
ORIGINATOR     = 

OBJECT_NAME    = STARLINK-35405
OBJECT_ID      = 2025-259U
CENTER_NAME    = EARTH
REF_FRAME      = TEME
TIME_SYSTEM    = UTC
MEAN_ELEMENT_THEORY = SGP/SGP4

EPOCH          = 2025-11-26T04:00:03.000096
MEAN_MOTION    = 15.75344763
ECCENTRICITY   = .0001889
INCLINATION    = 42.9999
RA_OF_ASC_NODE = 144.8632
ARG_OF_PERICENTER = 272.6676
MEAN_ANOMALY   = 359.9322

EPHEMERIS_TYPE = 0
CLASSIFICATION_TYPE = U
NORAD_CAT_ID   = 66440
ELEMENT_SET_NO = 999
REV_AT_EPOCH   = 361
BSTAR          = -.60578E-2
MEAN_MOTION_DOT = -.853582E-2
MEAN_MOTION_DDOT = 0

CCSDS_OMM_VERS = 2.0
CREATION_DATE  = 
ORIGINATOR     = 

OBJECT_NAME    = STARLINK-35426
OBJECT_ID      = 2025-259V
CENTER_NAME    = EARTH
REF_FRAME      = TEME
TIME_SYSTEM    = UTC
MEAN_ELEMENT_THEORY = SGP/SGP4

EPOCH          = 2025-11-26T04:00:03.000096
MEAN_MOTION    = 15.75373722
ECCENTRICITY   = .0001885
INCLINATION    = 42.9998
RA_OF_ASC_NODE = 144.8577
ARG_OF_PERICENTER = 264.4059
MEAN_ANOMALY   = 10.1085

EPHEMERIS_TYPE = 0
CLASSIFICATION_TYPE = U
NORAD_CAT_ID   = 66441
ELEMENT_SET_NO = 999
REV_AT_EPOCH   = 361
BSTAR          = -.63984E-2
MEAN_MOTION_DOT = -.897878E-2
MEAN_MOTION_DDOT = 0

CCSDS_OMM_VERS = 2.0
CREATION_DATE  = 
ORIGINATOR     = 

OBJECT_NAME    = STARLINK-34724
OBJECT_ID      = 2025-259W
CENTER_NAME    = EARTH
REF_FRAME      = TEME
TIME_SYSTEM    = UTC
MEAN_ELEMENT_THEORY = SGP/SGP4

EPOCH          = 2025-11-26T04:00:03.000096
MEAN_MOTION    = 15.75356517
ECCENTRICITY   = .0001978
INCLINATION    = 42.9998
RA_OF_ASC_NODE = 144.8532
ARG_OF_PERICENTER = 273.8929
MEAN_ANOMALY   = 2.5447

EPHEMERIS_TYPE = 0
CLASSIFICATION_TYPE = U
NORAD_CAT_ID   = 66442
ELEMENT_SET_NO = 999
REV_AT_EPOCH   = 361
BSTAR          = -.6189E-2
MEAN_MOTION_DOT = -.870736E-2
MEAN_MOTION_DDOT = 0

CCSDS_OMM_VERS = 2.0
CREATION_DATE  = 
ORIGINATOR     = 

OBJECT_NAME    = STARLINK-35219
OBJECT_ID      = 2025-259X
CENTER_NAME    = EARTH
REF_FRAME      = TEME
TIME_SYSTEM    = UTC
MEAN_ELEMENT_THEORY = SGP/SGP4

EPOCH          = 2025-11-26T04:00:03.000096
MEAN_MOTION    = 15.75364668
ECCENTRICITY   = .0001886
INCLINATION    = 42.9997
RA_OF_ASC_NODE = 144.8480
ARG_OF_PERICENTER = 275.9952
MEAN_ANOMALY   = 2.3571

EPHEMERIS_TYPE = 0
CLASSIFICATION_TYPE = U
NORAD_CAT_ID   = 66443
ELEMENT_SET_NO = 999
REV_AT_EPOCH   = 350
BSTAR          = -.63559E-2
MEAN_MOTION_DOT = -.892175E-2
MEAN_MOTION_DDOT = 0

CCSDS_OMM_VERS = 2.0
CREATION_DATE  = 
ORIGINATOR     = 

OBJECT_NAME    = STARLINK-35360
OBJECT_ID      = 2025-259Y
CENTER_NAME    = EARTH
REF_FRAME      = TEME
TIME_SYSTEM    = UTC
MEAN_ELEMENT_THEORY = SGP/SGP4

EPOCH          = 2025-11-26T04:00:03.000096
MEAN_MOTION    = 15.75365226
ECCENTRICITY   = .0001912
INCLINATION    = 42.9999
RA_OF_ASC_NODE = 144.8332
ARG_OF_PERICENTER = 274.8520
MEAN_ANOMALY   = 9.2531

EPHEMERIS_TYPE = 0
CLASSIFICATION_TYPE = U
NORAD_CAT_ID   = 66444
ELEMENT_SET_NO = 999
REV_AT_EPOCH   = 361
BSTAR          = -.63534E-2
MEAN_MOTION_DOT = -.891884E-2
MEAN_MOTION_DDOT = 0

CCSDS_OMM_VERS = 2.0
CREATION_DATE  = 
ORIGINATOR     = 

OBJECT_NAME    = STARLINK-34698
OBJECT_ID      = 2025-259Z
CENTER_NAME    = EARTH
REF_FRAME      = TEME
TIME_SYSTEM    = UTC
MEAN_ELEMENT_THEORY = SGP/SGP4

EPOCH          = 2025-11-26T04:00:03.000096
MEAN_MOTION    = 15.75354060
ECCENTRICITY   = .0001903
INCLINATION    = 42.9998
RA_OF_ASC_NODE = 144.8429
ARG_OF_PERICENTER = 272.8316
MEAN_ANOMALY   = 7.4325

EPHEMERIS_TYPE = 0
CLASSIFICATION_TYPE = U
NORAD_CAT_ID   = 66445
ELEMENT_SET_NO = 999
REV_AT_EPOCH   = 350
BSTAR          = -.60917E-2
MEAN_MOTION_DOT = -.858232E-2
MEAN_MOTION_DDOT = 0

CCSDS_OMM_VERS = 2.0
CREATION_DATE  = 
ORIGINATOR     = 

OBJECT_NAME    = STARLINK-34986
OBJECT_ID      = 2025-259AA
CENTER_NAME    = EARTH
REF_FRAME      = TEME
TIME_SYSTEM    = UTC
MEAN_ELEMENT_THEORY = SGP/SGP4

EPOCH          = 2025-11-26T04:00:03.000096
MEAN_MOTION    = 15.75347118
ECCENTRICITY   = .0002004
INCLINATION    = 42.9998
RA_OF_ASC_NODE = 144.8376
ARG_OF_PERICENTER = 267.4752
MEAN_ANOMALY   = 14.7116

EPHEMERIS_TYPE = 0
CLASSIFICATION_TYPE = U
NORAD_CAT_ID   = 66446
ELEMENT_SET_NO = 999
REV_AT_EPOCH   = 361
BSTAR          = -.60453E-2
MEAN_MOTION_DOT = -.852098E-2
MEAN_MOTION_DDOT = 0

CCSDS_OMM_VERS = 2.0
CREATION_DATE  = 
ORIGINATOR     = 

OBJECT_NAME    = STARLINK-34851
OBJECT_ID      = 2025-259AB
CENTER_NAME    = EARTH
REF_FRAME      = TEME
TIME_SYSTEM    = UTC
MEAN_ELEMENT_THEORY = SGP/SGP4

EPOCH          = 2025-11-26T04:00:03.000096
MEAN_MOTION    = 15.75348923
ECCENTRICITY   = .0002161
INCLINATION    = 42.9998
RA_OF_ASC_NODE = 144.8282
ARG_OF_PERICENTER = 260.6485
MEAN_ANOMALY   = 25.3705

EPHEMERIS_TYPE = 0
CLASSIFICATION_TYPE = U
NORAD_CAT_ID   = 66447
ELEMENT_SET_NO = 999
REV_AT_EPOCH   = 350
BSTAR          = -.60979E-2
MEAN_MOTION_DOT = -.858928E-2
MEAN_MOTION_DDOT = 0

CCSDS_OMM_VERS = 2.0
CREATION_DATE  = 
ORIGINATOR     = 

OBJECT_NAME    = STARLINK-35355
OBJECT_ID      = 2025-259AC
CENTER_NAME    = EARTH
REF_FRAME      = TEME
TIME_SYSTEM    = UTC
MEAN_ELEMENT_THEORY = SGP/SGP4

EPOCH          = 2025-11-26T04:00:03.000096
MEAN_MOTION    = 15.75350757
ECCENTRICITY   = .000212
INCLINATION    = 42.9997
RA_OF_ASC_NODE = 144.8237
ARG_OF_PERICENTER = 255.8306
MEAN_ANOMALY   = 32.1117

EPHEMERIS_TYPE = 0
CLASSIFICATION_TYPE = U
NORAD_CAT_ID   = 66448
ELEMENT_SET_NO = 999
REV_AT_EPOCH   = 361
BSTAR          = -.6208E-2
MEAN_MOTION_DOT = -.873007E-2
MEAN_MOTION_DDOT = 0

CCSDS_OMM_VERS = 2.0
CREATION_DATE  = 
ORIGINATOR     = 

OBJECT_NAME    = STARLINK-34720
OBJECT_ID      = 2025-259AD
CENTER_NAME    = EARTH
REF_FRAME      = TEME
TIME_SYSTEM    = UTC
MEAN_ELEMENT_THEORY = SGP/SGP4

EPOCH          = 2025-11-26T04:00:03.000096
MEAN_MOTION    = 15.75341478
ECCENTRICITY   = .0002014
INCLINATION    = 42.9997
RA_OF_ASC_NODE = 144.8185
ARG_OF_PERICENTER = 260.8261
MEAN_ANOMALY   = 29.0355

EPHEMERIS_TYPE = 0
CLASSIFICATION_TYPE = U
NORAD_CAT_ID   = 66449
ELEMENT_SET_NO = 999
REV_AT_EPOCH   = 350
BSTAR          = -.60198E-2
MEAN_MOTION_DOT = -.848652E-2
MEAN_MOTION_DDOT = 0

CCSDS_OMM_VERS = 2.0
CREATION_DATE  = 
ORIGINATOR     = 

OBJECT_NAME    = STARLINK-35334
OBJECT_ID      = 2025-259AE
CENTER_NAME    = EARTH
REF_FRAME      = TEME
TIME_SYSTEM    = UTC
MEAN_ELEMENT_THEORY = SGP/SGP4

EPOCH          = 2025-11-26T04:00:03.000096
MEAN_MOTION    = 15.75344320
ECCENTRICITY   = .0001977
INCLINATION    = 42.9998
RA_OF_ASC_NODE = 144.8129
ARG_OF_PERICENTER = 267.8459
MEAN_ANOMALY   = 23.9297

EPHEMERIS_TYPE = 0
CLASSIFICATION_TYPE = U
NORAD_CAT_ID   = 66450
ELEMENT_SET_NO = 999
REV_AT_EPOCH   = 361
BSTAR          = -.60755E-2
MEAN_MOTION_DOT = -.855846E-2
MEAN_MOTION_DDOT = 0

CCSDS_OMM_VERS = 2.0
CREATION_DATE  = 
ORIGINATOR     = 

OBJECT_NAME    = VIASAT-3 F2
OBJECT_ID      = 2025-261A
CENTER_NAME    = EARTH
REF_FRAME      = TEME
TIME_SYSTEM    = UTC
MEAN_ELEMENT_THEORY = SGP/SGP4

EPOCH          = 2025-11-24T18:52:49.001664
MEAN_MOTION    = 2.28339319
ECCENTRICITY   = .23399778
INCLINATION    = 5.5881
RA_OF_ASC_NODE = 294.0676
ARG_OF_PERICENTER = 182.3088
MEAN_ANOMALY   = 163.5235

EPHEMERIS_TYPE = 0
CLASSIFICATION_TYPE = U
NORAD_CAT_ID   = 66454
ELEMENT_SET_NO = 999
REV_AT_EPOCH   = 23
BSTAR          = 0
MEAN_MOTION_DOT = -.57E-6
MEAN_MOTION_DDOT = 0

